SatCatId,ObjectName,LaunchYear,OrbitalPeriod,LaunchMass,StatusCode,Inclination,Status,UcsData,OrbitClassEstimated,LaunchSiteCountry,Owner,UseType,Purpose,LaunchVehicleClass,TLE1,TLE2,MeanMotion,Eccentricity,OrbitClass
37189,GLOBALSTAR M074,2010,114.08,700.0,+,52.0,Active,1,LEO,Kazakhstan,Globalstar,Commercial,Communications,Soyuz,1 37189U 10054B   24142.23017402 -.00000083  00000+0  11731-3 0  9997,2 37189  52.0014 252.3500 0000544 128.3139 236.2186 12.62268773627567,12.62268773,5.44e-05,LEO
37190,GLOBALSTAR M076,2010,114.08,700.0,+,52.0,Active,1,LEO,Kazakhstan,Globalstar,Commercial,Communications,Soyuz,1 37190U 10054C   24142.25836299 -.00000085  00000+0  10648-3 0  9992,2 37190  52.0027 252.3968 0000709 173.5156 201.1758 12.62279099627283,12.62279099,7.09e-05,LEO
37191,GLOBALSTAR M077,2010,114.08,700.0,+,52.01,Active,1,LEO,Kazakhstan,Globalstar,Commercial,Communications,Soyuz,1 37191U 10054D   24142.50264213 -.00000064  00000+0  22132-3 0  9990,2 37191  52.0059 208.3995 0000258 154.3808 309.2319 12.62273364628429,12.62273364,2.58e-05,LEO
37192,GLOBALSTAR M075,2010,114.08,700.0,+,52.0,Active,1,LEO,Kazakhstan,Globalstar,Commercial,Communications,Soyuz,1 37192U 10054E   24142.60275777 -.00000085  00000+0  10315-3 0  9992,2 37192  51.9954 293.8250 0000877 114.1254 325.2510 12.62274468626550,12.62274468,8.77e-05,LEO
37193,GLOBALSTAR M073,2010,114.08,700.0,+,52.0,Active,1,LEO,Kazakhstan,Globalstar,Commercial,Communications,Soyuz,1 37193U 10054F   24142.36536779 -.00000061  00000+0  24131-3 0  9993,2 37193  52.0045 208.0694 0000393 161.0271 278.0434 12.62265508628352,12.62265508,3.93e-05,LEO
37207,BSAT-3B,2010,1436.11,2060.0,+,0.04,Active,1,GSO,French Guiana,Japan,Commercial,Communications,Ariane,1 37207U 10056B   24141.88955769 -.00000331  00000+0  00000+0 0  9996,2 37207   0.0375 323.0102 0002612  43.7798 302.3287  1.00271135 44515,1.00271135,0.0002612,GEO
37210,BEIDOU-2 G4,2010,1436.09,6000.0,+,1.78,Active,1,GSO,PRC,China,Government/Military,Navigation (Global or Regional Positioning),Long March,1 37210U 10057A   24142.55143549 -.00000091  00000+0  00000+0 0  9994,2 37210   1.7823  68.4149 0002758 184.1566 345.7228  1.00272283 49707,1.00272283,0.0002758,GSO
37214,FENGYUN 3B,2010,101.8,2300.0,+,99.06,Active,1,LEO,PRC,China,Government,Earth Observation,Long March,1 37214U 10059A   24142.62082767  .00000300  00000+0  17997-3 0  9991,2 37214  99.0565 170.3409 0022505 165.2288 303.8799 14.14494829700454,14.14494829,0.0022505,LEO
37216,COSMO-SKYMED 4,2010,97.16,1700.0,+,97.89,Active,1,LEO,USA,Italy,Government/Military,Earth Observation,Delta,1 37216U 10060A   24142.58321414  .00001391  00000+0  18126-3 0  9991,2 37216  97.8866 326.1207 0001517  91.9050 268.2336 14.82157178732493,14.82157178,0.0001517,LEO
37218,SKYTERRA 1,2010,1436.09,5360.0,+,3.57,Active,1,GSO,Kazakhstan,USA,Commercial,Communications,Breeze,1 37218U 10061A   24142.52819087 -.00000098  00000+0  00000+0 0  9998,2 37218   3.5677  48.0014 0003282 344.8014 295.6809  1.00272565 49603,1.00272565,0.0003282,GSO
37224,O/OREOS (USA 219),2010,96.83,5.5,+,71.97,Active,1,LEO,USA,USA,Civil/Government,Space Science,Minotaur,1 37224U 10062C   24141.69371012  .00005628  00000+0  63109-3 0  9990,2 37224  71.9736 348.6722 0013964  65.5764 294.6858 14.87126267  3741,14.87126267,0.0013964,LEO
37237,HYLAS 1,2010,1436.11,2242.0,+,3.71,Active,1,GSO,French Guiana,UK,Commercial,Communications,Ariane,1 37237U 10065A   24142.56960308 -.00000342  00000+0  00000+0 0  9992,2 37237   3.7095  82.1960 0001226 330.9589 148.8018  1.00270981 49395,1.00270981,0.0001226,GSO
37238,INTELSAT 17 (IS-17),2010,1436.08,5540.0,+,0.02,Active,1,GSO,French Guiana,INTELSAT,Commercial,Communications,Ariane,1 37238U 10065B   24142.54515953  .00000018  00000+0  00000+0 0  9992,2 37238   0.0186 296.6249 0002498 134.7134  70.5900  1.00272975 45658,1.00272975,0.0002498,GEO
37256,BEIDOU-2 IGSO-2,2010,1436.28,4200.0,+,48.93,Active,1,GSO,PRC,China,Government/Military,Navigation (Global or Regional Positioning),Long March,1 37256U 10068A   24142.23462524 -.00000220  00000+0  00000+0 0  9992,2 37256  48.9309 281.1481 0034405 209.1039 300.4309  1.00258879 49207,1.00258879,0.0034405,GSO
37258,EUTELSAT KA-SAT 9A,2010,1436.12,6150.0,+,0.06,Active,1,GSO,Kazakhstan,EUTELSAT,Commercial,Communications,Proton,1 37258U 10069A   24142.11577406  .00000081  00000+0  00000+0 0  9992,2 37258   0.0622 292.1240 0003222 189.2139 168.5422  1.00269983 36419,1.00269983,0.0003222,GEO
37264,HISPASAT 30W-5,2010,1436.1,5320.0,+,0.05,Active,1,GSO,French Guiana,Spain,Commercial,Communications,Ariane,1 37264U 10070A   24141.69910410 -.00000197  00000+0  00000+0 0  9998,2 37264   0.0532 107.9969 0005504 335.0382  17.5011  1.00271495 45590,1.00271495,0.0005504,GEO
37265,KOREASAT 6,2010,1436.09,2850.0,+,0.01,Active,1,GSO,French Guiana,South Korea,Commercial,Communications,Ariane,1 37265U 10070B   24142.56981809 -.00000342  00000+0  00000+0 0  9998,2 37265   0.0018 350.5695 0001706  91.6837 118.5852  1.00272288 49187,1.00272288,0.0001706,GEO
37384,BEIDOU-2 IGSO-3,2011,1436.18,4200.0,+,61.31,Active,1,GSO,PRC,China,Government/Military,Navigation (Global or Regional Positioning),Long March,1 37384U 11013A   24142.23851646 -.00000206  00000+0  00000+0 0  9996,2 37384  61.3143  47.3719 0026028 177.3508 208.5859  1.00265705 48077,1.00265705,0.0026028,GSO
37387,RESOURCESAT-2,2011,101.29,1206.0,+,98.58,Active,1,LEO,India,India,Government,Earth Observation,PSLV,1 37387U 11015A   24142.48862052 -.00000015  00000+0  12588-4 0  9998,2 37387  98.5780 208.9912 0004332 179.0731 181.0455 14.21693297679198,14.21693297,0.0004332,LEO
37388,YOUTHSAT,2011,101.06,92.0,+,98.3,Active,1,LEO,India,India,Government,Space Science,PSLV,1 37388U 11015B   24142.62834053  .00000615  00000+0  28019-3 0  9995,2 37388  98.2991 143.6595 0015630  47.9919  65.9364 14.24886849679869,14.24886849,0.001563,LEO
37389,X-SAT,2011,101.07,91.0,+,98.29,Active,1,LEO,India,Singapore,Government,Earth Observation,PSLV,1 37389U 11015C   24142.58074529  .00000352  00000+0  16840-3 0  9992,2 37389  98.2934 148.0306 0015119  49.0658 311.1829 14.24694160679923,14.2469416,0.0015119,LEO
37392,INTELSAT NEW DAWN,2011,1436.12,3000.0,+,0.02,Active,1,GSO,French Guiana,INTELSAT,Commercial,Communications,Ariane,1 37392U 11016A   24142.53854581  .00000176  00000+0  00000+0 0  9997,2 37392   0.0195 300.7463 0001677 143.6654  21.9236  1.00270060 45709,1.0027006,0.0001677,GEO
37393,YAHSAT 1A,2011,1436.12,5953.0,+,0.01,Active,1,GSO,French Guiana,UAE,Commercial/Military,Communications,Ariane,1 37393U 11016B   24142.10188399  .00000121  00000+0  00000+0 0  9998,2 37393   0.0150 293.4833 0002830 169.3810 225.5329  1.00270462 34812,1.00270462,0.000283,GEO
37481,SBIRS GEO-1 (USA 230),2011,1436.09,4500.0,+,2.95,Active,1,GSO,USA,USA,Military,Earth Observation,Atlas,1 37481U 11019A   24142.54515953  .00000015  00000+0  00000+0 0  9999,2 37481   2.9462  48.1679 0001858   6.1852  87.2715  1.00272109 47819,1.00272109,0.0001858,GSO
37602,TELSTAR 14R,2011,1436.11,4970.0,+,0.02,Active,1,GSO,Kazakhstan,Canada,Commercial,Communications,Proton,1 37602U 11021A   24142.30476828 -.00000260  00000+0  00000+0 0  9991,2 37602   0.0167 304.8332 0003337 106.2308 235.0947  1.00270908 48248,1.00270908,0.0003337,GEO
37605,GSAT-8,2011,1436.09,3093.0,+,0.17,Active,1,GSO,French Guiana,India,Government,Communications/Navigation (Global or Regional Positioning),Ariane,1 37605U 11022A   24142.54298396  .00000105  00000+0  00000+0 0  9990,2 37605   0.1699  92.0124 0003528 214.1401 184.0724  1.00272098 47654,1.00272098,0.0003528,GEO
37606,ST-2,2011,1436.08,5090.0,+,0.02,Active,1,GSO,French Guiana,Singapore/Taiwan,Commercial,Communications,Ariane,1 37606U 11022B   24142.59194953 -.00000192  00000+0  00000+0 0  9997,2 37606   0.0177 300.8773 0001757 124.9357 115.0371  1.00272605 47695,1.00272605,0.0001757,GEO
37677,CHINASAT 10 (ZX 10),2011,1436.06,5000.0,+,0.05,Active,1,GSO,PRC,China,Government,Communications,Long March,1 37677U 11026A   24142.60773170 -.00000332  00000+0  00000+0 0  9991,2 37677   0.0447 269.6173 0003098 234.4846  64.9342  1.00274132 47416,1.00274132,0.0003098,GEO
37730,SJ-11-03,2011,98.48,-1.0,+,97.84,Active,1,LEO,PRC,China,Government,Technology Development,Long March,1 37730U 11030A   24142.57032046  .00001645  00000+0  33488-3 0  9999,2 37730  97.8390 128.4599 0006991 265.8531 210.3501 14.62270653686447,14.62270653,0.0006991,LEO
37739,GLOBALSTAR M083,2011,114.08,700.0,+,51.98,Active,1,LEO,Kazakhstan,Globalstar,Commercial,Communications,Soyuz,1 37739U 11033A   24142.38469277 -.00000081  00000+0  12708-3 0  9996,2 37739  51.9832 157.2750 0000343  81.7381  26.5357 12.62270178597379,12.62270178,3.43e-05,LEO
37740,GLOBALSTAR M088,2011,114.08,700.0,+,51.97,Active,1,LEO,Kazakhstan,Globalstar,Commercial,Communications,Soyuz,1 37740U 11033B   24142.29431983 -.00000101  00000+0  13662-4 0  9995,2 37740  51.9748  63.3690 0000782  71.5224 106.2979 12.62268272592909,12.62268272,7.82e-05,LEO
37741,GLOBALSTAR M091,2011,114.08,700.0,+,52.0,Active,1,LEO,Kazakhstan,Globalstar,Commercial,Communications,Soyuz,1 37741U 11033C   24142.06264566 -.00000079  00000+0  13839-3 0  9991,2 37741  52.0022  26.9311 0001097  81.4433  62.1184 12.62262856593668,12.62262856,0.0001097,LEO
37742,GLOBALSTAR M085,2011,114.08,700.0,+,51.99,Active,1,LEO,Kazakhstan,Globalstar,Commercial,Communications,Soyuz,1 37742U 11033D   24141.88277953 -.00000074  00000+0  16388-3 0  9992,2 37742  51.9885 338.8645 0001126  96.1445  10.4746 12.62271212594159,12.62271212,0.0001126,LEO
37743,GLOBALSTAR M081,2011,114.08,700.0,+,52.0,Active,1,LEO,Kazakhstan,Globalstar,Commercial,Communications,Soyuz,1 37743U 11033E   24141.74512595 -.00000069  00000+0  19636-3 0  9995,2 37743  51.9975 341.8291 0001095 106.6721 333.5580 12.62265031594281,12.62265031,0.0001095,LEO
